{
  "norad_id": 53046,
  "name": "STARLINK-4331",
  "history": [
    {
      "epoch": "2026-03-28T11:57:02.378016Z",
      "apogee_km": 550.670157499575,
      "perigee_km": 548.443596687478,
      "latitude_deg": 7.188049188441155e-06,
      "longitude_deg": -95.32184131319518,
      "height_km": 552.9636599383575,
      "semi_major_axis_km": 6927.693877093527,
      "eccentricity": 0.0001607,
      "inclination_deg": 97.6026,
      "raan_deg": 269.8556,
      "arg_perigee_deg": 107.9984,
      "mean_anomaly_deg": 252.1418,
      "mean_motion_rev_day": 15.05635094
    },
    {
      "epoch": "2026-03-29T02:18:20.232000Z",
      "apogee_km": 550.6326408571567,
      "perigee_km": 548.415789268337,
      "latitude_deg": -3.1642972454006318e-06,
      "longitude_deg": 49.35373107824308,
      "height_km": 552.5730501189933,
      "semi_major_axis_km": 6927.661215062747,
      "eccentricity": 0.00016,
      "inclination_deg": 97.6026,
      "raan_deg": 270.4451,
      "arg_perigee_deg": 89.2881,
      "mean_anomaly_deg": 270.8529,
      "mean_motion_rev_day": 15.05645742
    },
    {
      "epoch": "2026-03-30T02:13:50.245824Z",
      "apogee_km": 550.6204017389846,
      "perigee_km": 548.4298749708369,
      "latitude_deg": 1.4187617208917765e-05,
      "longitude_deg": 50.47850674787014,
      "height_km": 552.5753670450782,
      "semi_major_axis_km": 6927.662138354911,
      "eccentricity": 0.0001581,
      "inclination_deg": 97.6024,
      "raan_deg": 271.4275,
      "arg_perigee_deg": 89.3506,
      "mean_anomaly_deg": 270.7902,
      "mean_motion_rev_day": 15.05645441
    },
    {
      "epoch": "2026-03-30T05:25:14.215008Z",
      "apogee_km": 550.6191175737285,
      "perigee_km": 548.4287297428864,
      "latitude_deg": 1.5234782980249254e-05,
      "longitude_deg": 2.6286268692502524,
      "height_km": 552.574477772,
      "semi_major_axis_km": 6927.660923658307,
      "eccentricity": 0.00015809,
      "inclination_deg": 97.6023,
      "raan_deg": 271.5585,
      "arg_perigee_deg": 89.3674,
      "mean_anomaly_deg": 270.7734,
      "mean_motion_rev_day": 15.05645837
    },
    {
      "epoch": "2026-03-30T11:48:02.238912Z",
      "apogee_km": 550.6081154750145,
      "perigee_km": 548.4470997773124,
      "latitude_deg": -4.137706653770548e-05,
      "longitude_deg": -93.07158247120427,
      "height_km": 552.5770963769282,
      "semi_major_axis_km": 6927.664607626163,
      "eccentricity": 0.00015597,
      "inclination_deg": 97.6024,
      "raan_deg": 271.8204,
      "arg_perigee_deg": 89.3002,
      "mean_anomaly_deg": 270.8403,
      "mean_motion_rev_day": 15.05644636
    },
    {
      "epoch": "2026-03-30T18:10:50.160000Z",
      "apogee_km": 550.6086192842604,
      "perigee_km": 548.4403997850068,
      "latitude_deg": 1.4437336024442637e-06,
      "longitude_deg": 171.22862456258568,
      "height_km": 552.5654225900155,
      "semi_major_axis_km": 6927.661509534633,
      "eccentricity": 0.00015649,
      "inclination_deg": 97.6025,
      "raan_deg": 272.0823,
      "arg_perigee_deg": 88.8502,
      "mean_anomaly_deg": 271.2904,
      "mean_motion_rev_day": 15.05645646
    },
    {
      "epoch": "2026-03-31T18:06:20.349216Z",
      "apogee_km": 550.6266211284228,
      "perigee_km": 548.4305511376197,
      "latitude_deg": -2.4202328449820425e-05,
      "longitude_deg": 172.35287391153918,
      "height_km": 552.558814598572,
      "semi_major_axis_km": 6927.665586133021,
      "eccentricity": 0.0001585,
      "inclination_deg": 97.6024,
      "raan_deg": 273.0649,
      "arg_perigee_deg": 88.3087,
      "mean_anomaly_deg": 271.8321,
      "mean_motion_rev_day": 15.05644317
    },
    {
      "epoch": "2026-04-01T19:37:32.531232Z",
      "apogee_km": 550.613664519803,
      "perigee_km": 548.4522314960241,
      "latitude_deg": 7.785786550944846e-05,
      "longitude_deg": 149.55203208262685,
      "height_km": 552.5406642251677,
      "semi_major_axis_km": 6927.669948007913,
      "eccentricity": 0.000156,
      "inclination_deg": 97.6021,
      "raan_deg": 274.1129,
      "arg_perigee_deg": 87.0854,
      "mean_anomaly_deg": 273.0552,
      "mean_motion_rev_day": 15.05642895
    },
    {
      "epoch": "2026-04-02T17:57:20.088288Z",
      "apogee_km": 550.5662093358806,
      "perigee_km": 548.4685155949264,
      "latitude_deg": 5.178397308434236e-06,
      "longitude_deg": 174.60383261621277,
      "height_km": 552.5256366531443,
      "semi_major_axis_km": 6927.654362465403,
      "eccentricity": 0.0001514,
      "inclination_deg": 97.6022,
      "raan_deg": 275.0299,
      "arg_perigee_deg": 87.0222,
      "mean_anomaly_deg": 273.1178,
      "mean_motion_rev_day": 15.05647976
    },
    {
      "epoch": "2026-04-02T22:44:25.931040Z",
      "apogee_km": 550.5480727839276,
      "perigee_km": 548.4713028598517,
      "latitude_deg": -1.4028420956392494e-05,
      "longitude_deg": 102.82947933147871,
      "height_km": 552.510009037472,
      "semi_major_axis_km": 6927.646687821889,
      "eccentricity": 0.00014989,
      "inclination_deg": 97.602,
      "raan_deg": 275.2264,
      "arg_perigee_deg": 86.5506,
      "mean_anomaly_deg": 273.5892,
      "mean_motion_rev_day": 15.05650478
    },
    {
      "epoch": "2026-04-03T17:52:50.679264Z",
      "apogee_km": 550.618624744282,
      "perigee_km": 548.4558048544213,
      "latitude_deg": 8.076071989566372e-05,
      "longitude_deg": 175.72628872592318,
      "height_km": 552.5303017721934,
      "semi_major_axis_km": 6927.674214799351,
      "eccentricity": 0.0001561,
      "inclination_deg": 97.602,
      "raan_deg": 276.0124,
      "arg_perigee_deg": 86.311,
      "mean_anomaly_deg": 273.8296,
      "mean_motion_rev_day": 15.05641504
    },
    {
      "epoch": "2026-04-04T01:51:20.624256Z",
      "apogee_km": 550.6210747639743,
      "perigee_km": 548.4435697426024,
      "latitude_deg": -4.4749220197762023e-05,
      "longitude_deg": 56.10151350825923,
      "height_km": 552.529254308617,
      "semi_major_axis_km": 6927.669322253288,
      "eccentricity": 0.00015716,
      "inclination_deg": 97.6022,
      "raan_deg": 276.3399,
      "arg_perigee_deg": 86.5388,
      "mean_anomaly_deg": 273.6018,
      "mean_motion_rev_day": 15.05643099
    },
    {
      "epoch": "2026-04-05T11:20:59.677152Z",
      "apogee_km": 550.5038669530368,
      "perigee_km": 548.3633861808403,
      "latitude_deg": 2.6520377101840667e-05,
      "longitude_deg": -86.31147522593635,
      "height_km": 552.3834297754136,
      "semi_major_axis_km": 6927.570626566939,
      "eccentricity": 0.00015449,
      "inclination_deg": 97.6021,
      "raan_deg": 277.7152,
      "arg_perigee_deg": 83.9424,
      "mean_anomaly_deg": 276.1979,
      "mean_motion_rev_day": 15.05675275
    },
    {
      "epoch": "2026-04-06T01:42:19.649664Z",
      "apogee_km": 551.0879298880882,
      "perigee_km": 547.9334947787547,
      "latitude_deg": 2.1968407780616566e-05,
      "longitude_deg": 58.35534405373723,
      "height_km": 552.4501100061386,
      "semi_major_axis_km": 6927.647712333422,
      "eccentricity": 0.00022767,
      "inclination_deg": 97.6027,
      "raan_deg": 278.3048,
      "arg_perigee_deg": 85.5632,
      "mean_anomaly_deg": 274.5855,
      "mean_motion_rev_day": 15.05650144
    },
    {
      "epoch": "2026-04-07T11:12:01.707552Z",
      "apogee_km": 550.8292827474488,
      "perigee_km": 548.1239110855813,
      "latitude_deg": -3.769635877439972e-05,
      "longitude_deg": -84.06988433141585,
      "height_km": 552.6743221852973,
      "semi_major_axis_km": 6927.613596916515,
      "eccentricity": 0.00019526,
      "inclination_deg": 97.601,
      "raan_deg": 279.6804,
      "arg_perigee_deg": 95.7535,
      "mean_anomaly_deg": 264.3914,
      "mean_motion_rev_day": 15.05661266
    },
    {
      "epoch": "2026-04-08T11:07:32.296800Z",
      "apogee_km": 550.5224768276166,
      "perigee_km": 548.5703941891607,
      "latitude_deg": -1.1952772597579496e-05,
      "longitude_deg": -82.94811750113129,
      "height_km": 552.6293960833674,
      "semi_major_axis_km": 6927.683435508388,
      "eccentricity": 0.00014089,
      "inclination_deg": 97.6022,
      "raan_deg": 280.6622,
      "arg_perigee_deg": 91.1753,
      "mean_anomaly_deg": 268.9635,
      "mean_motion_rev_day": 15.05638498
    },
    {
      "epoch": "2026-04-09T11:03:02.232864Z",
      "apogee_km": 550.4856617336227,
      "perigee_km": 548.5570016540787,
      "latitude_deg": -9.918343630149054e-06,
      "longitude_deg": -81.82301847358526,
      "height_km": 552.6226252846633,
      "semi_major_axis_km": 6927.65833169385,
      "eccentricity": 0.0001392,
      "inclination_deg": 97.6026,
      "raan_deg": 281.6446,
      "arg_perigee_deg": 92.2774,
      "mean_anomaly_deg": 267.8612,
      "mean_motion_rev_day": 15.05646682
    },
    {
      "epoch": "2026-04-10T06:11:26.299392Z",
      "apogee_km": 550.4568451873411,
      "perigee_km": 548.5708615190233,
      "latitude_deg": 4.718577544733494e-05,
      "longitude_deg": -8.923558066470136,
      "height_km": 552.6210959295884,
      "semi_major_axis_km": 6927.650853353181,
      "eccentricity": 0.00013612,
      "inclination_deg": 97.6027,
      "raan_deg": 282.4304,
      "arg_perigee_deg": 92.688,
      "mean_anomaly_deg": 267.4503,
      "mean_motion_rev_day": 15.0564912
    },
    {
      "epoch": "2026-04-11T18:52:32.522592Z",
      "apogee_km": 550.4616859646549,
      "perigee_km": 548.5690513375384,
      "latitude_deg": -1.1281702142719596e-05,
      "longitude_deg": 160.8005147390104,
      "height_km": 552.6174757817532,
      "semi_major_axis_km": 6927.652368651096,
      "eccentricity": 0.0001366,
      "inclination_deg": 97.6028,
      "raan_deg": 283.937,
      "arg_perigee_deg": 92.3676,
      "mean_anomaly_deg": 267.7707,
      "mean_motion_rev_day": 15.05648626
    }
  ]
}